start=new Date('2022-11-14T00:00:00.000Z').valueOf();
sats=[{"REF_FRAME":"TEME","FILE":"3653957","COUNTRY_CODE":"US","EPOCH":"2022-11-13T22:00:00.999936","OBJECT_NAME":"STARLINK-5048","RCS_SIZE":"LARGE","MEAN_ANOMALY":"299.8239","OBJECT_TYPE":"PAYLOAD","REV_AT_EPOCH":"130","TLE_LINE1":"1 53911U 22119AB  22317.91667824  .00031545  00000-0  22885-3 0  9998","GP_ID":"217694913","RA_OF_ASC_NODE":"5.7912","ARG_OF_PERICENTER":"3.2588","CENTER_NAME":"EARTH","APOAPSIS":"352.496","ELEMENT_SET_NO":"999","EPHEMERIS_TYPE":"0","SEMIMAJOR_AXIS":"6728.062","LAUNCH_DATE":"2022-09-24","INCLINATION":"53.2164","ECCENTRICITY":"0.00038170","MEAN_MOTION_DDOT":"0.0000000000000","PERIAPSIS":"347.359","MEAN_MOTION_DOT":"0.00031545","PERIOD":"91.537","DECAY_DATE":null,"TLE_LINE2":"2 53911  53.2164   5.7912 0003817   3.2588 299.8239 15.73141346  1302","BSTAR":"0.00022885000000","MEAN_ELEMENT_THEORY":"SGP4","NORAD_CAT_ID":"53911","TIME_SYSTEM":"UTC","CLASSIFICATION_TYPE":"U","OBJECT_ID":"2022-119AB","SITE":"AFETR","MEAN_MOTION":"15.73141346"},{"MEAN_ANOMALY":"310.6872","OBJECT_TYPE":"PAYLOAD","RCS_SIZE":"LARGE","OBJECT_NAME":"STARLINK-5059","EPOCH":"2022-11-13T22:00:00.999936","COUNTRY_CODE":"US","FILE":"3653957","REF_FRAME":"TEME","ELEMENT_SET_NO":"999","APOAPSIS":"352.890","CENTER_NAME":"EARTH","ARG_OF_PERICENTER":"354.5951","RA_OF_ASC_NODE":"5.7898","GP_ID":"217695929","TLE_LINE1":"1 53912U 22119AC  22317.91667824  .00077457  00000-0  55368-3 0  9993","REV_AT_EPOCH":"130","PERIOD":"91.540","MEAN_MOTION_DOT":"0.00077457","PERIAPSIS":"347.272","MEAN_MOTION_DDOT":"0.0000000000000","INCLINATION":"53.2152","ECCENTRICITY":"0.00041750","LAUNCH_DATE":"2022-09-24","SEMIMAJOR_AXIS":"6728.216","EPHEMERIS_TYPE":"0","MEAN_MOTION":"15.73087607","SITE":"AFETR","OBJECT_ID":"2022-119AC","CLASSIFICATION_TYPE":"U","NORAD_CAT_ID":"53912","TIME_SYSTEM":"UTC","MEAN_ELEMENT_THEORY":"SGP4","BSTAR":"0.00055368000000","TLE_LINE2":"2 53912  53.2152   5.7898 0004175 354.5951 310.6872 15.73087607  1301","DECAY_DATE":null},{"ARG_OF_PERICENTER":"8.7109","REV_AT_EPOCH":"130","GP_ID":"217695761","RA_OF_ASC_NODE":"5.7866","TLE_LINE1":"1 53913U 22119AD  22317.91667824  .00077992  00000-0  55623-3 0  9992","ELEMENT_SET_NO":"999","APOAPSIS":"352.589","CENTER_NAME":"EARTH","FILE":"3653957","REF_FRAME":"TEME","COUNTRY_CODE":"US","OBJECT_TYPE":"PAYLOAD","MEAN_ANOMALY":"298.3865","RCS_SIZE":"LARGE","OBJECT_NAME":"STARLINK-5053","EPOCH":"2022-11-13T22:00:00.999936","BSTAR":"0.00055623000000","TLE_LINE2":"2 53913  53.2165   5.7866 0003949   8.7109 298.3865 15.73139544  1304","NORAD_CAT_ID":"53913","TIME_SYSTEM":"UTC","MEAN_ELEMENT_THEORY":"SGP4","DECAY_DATE":null,"OBJECT_ID":"2022-119AD","MEAN_MOTION":"15.73139544","SITE":"AFETR","CLASSIFICATION_TYPE":"U","LAUNCH_DATE":"2022-09-24","SEMIMAJOR_AXIS":"6728.068","INCLINATION":"53.2165","ECCENTRICITY":"0.00039490","EPHEMERIS_TYPE":"0","PERIOD":"91.537","PERIAPSIS":"347.276","MEAN_MOTION_DDOT":"0.0000000000000","MEAN_MOTION_DOT":"0.00077992"},{"MEAN_ELEMENT_THEORY":"SGP4","TIME_SYSTEM":"UTC","NORAD_CAT_ID":"53914","TLE_LINE2":"2 53914  53.2169   5.7853 0004082   2.7143 305.0040 15.73189269  1306","BSTAR":"0.00010939000000","DECAY_DATE":null,"SITE":"AFETR","MEAN_MOTION":"15.73189269","OBJECT_ID":"2022-119AE","CLASSIFICATION_TYPE":"U","ECCENTRICITY":"0.00040820","INCLINATION":"53.2169","SEMIMAJOR_AXIS":"6727.926","LAUNCH_DATE":"2022-09-24","EPHEMERIS_TYPE":"0","PERIOD":"91.534","MEAN_MOTION_DOT":"0.00014754","MEAN_MOTION_DDOT":"0.0000000000000","PERIAPSIS":"347.044","ARG_OF_PERICENTER":"2.7143","TLE_LINE1":"1 53914U 22119AE  22317.91667824  .00014754  00000-0  10939-3 0  9991","RA_OF_ASC_NODE":"5.7853","GP_ID":"217695158","REV_AT_EPOCH":"130","ELEMENT_SET_NO":"999","CENTER_NAME":"EARTH","APOAPSIS":"352.537","COUNTRY_CODE":"US","REF_FRAME":"TEME","FILE":"3653957","RCS_SIZE":"LARGE","MEAN_ANOMALY":"305.0040","OBJECT_TYPE":"PAYLOAD","EPOCH":"2022-11-13T22:00:00.999936","OBJECT_NAME":"STARLINK-5040"},{"TIME_SYSTEM":"UTC","NORAD_CAT_ID":"53915","MEAN_ELEMENT_THEORY":"SGP4","BSTAR":"0.00005889100000","TLE_LINE2":"2 53915  53.2152   5.7905 0003752  11.8501 292.8748 15.73191633  1305","DECAY_DATE":null,"MEAN_MOTION":"15.73191633","SITE":"AFETR","OBJECT_ID":"2022-119AF","CLASSIFICATION_TYPE":"U","INCLINATION":"53.2152","ECCENTRICITY":"0.00037520","LAUNCH_DATE":"2022-09-24","SEMIMAJOR_AXIS":"6727.919","EPHEMERIS_TYPE":"0","PERIOD":"91.534","MEAN_MOTION_DOT":"0.00007648","PERIAPSIS":"347.260","MEAN_MOTION_DDOT":"0.0000000000000","ARG_OF_PERICENTER":"11.8501","GP_ID":"217695327","RA_OF_ASC_NODE":"5.7905","TLE_LINE1":"1 53915U 22119AF  22317.91667824  .00007648  00000-0  58891-4 0  9996","REV_AT_EPOCH":"130","ELEMENT_SET_NO":"999","APOAPSIS":"352.308","CENTER_NAME":"EARTH","COUNTRY_CODE":"US","FILE":"3653957","REF_FRAME":"TEME","OBJECT_TYPE":"PAYLOAD","MEAN_ANOMALY":"292.8748","RCS_SIZE":"LARGE","OBJECT_NAME":"STARLINK-5017","EPOCH":"2022-11-13T22:00:00.999936"},{"OBJECT_TYPE":"PAYLOAD","MEAN_ANOMALY":"336.2927","RCS_SIZE":"LARGE","OBJECT_NAME":"STARLINK-5051","EPOCH":"2022-11-13T22:00:00.999936","COUNTRY_CODE":"US","FILE":"3653957","REF_FRAME":"TEME","ELEMENT_SET_NO":"999","APOAPSIS":"351.921","CENTER_NAME":"EARTH","ARG_OF_PERICENTER":"22.3232","GP_ID":"217695667","RA_OF_ASC_NODE":"5.6983","TLE_LINE1":"1 53916U 22119AG  22317.91667824  .00011232  00000-0  84399-4 0  9993","REV_AT_EPOCH":"130","PERIOD":"91.534","MEAN_MOTION_DOT":"0.00011232","PERIAPSIS":"347.692","MEAN_MOTION_DDOT":"0.0000000000000","ECCENTRICITY":"0.00031430","INCLINATION":"53.2186","SEMIMAJOR_AXIS":"6727.941","LAUNCH_DATE":"2022-09-24","EPHEMERIS_TYPE":"0","MEAN_MOTION":"15.73183818","SITE":"AFETR","OBJECT_ID":"2022-119AG","CLASSIFICATION_TYPE":"U","TIME_SYSTEM":"UTC","NORAD_CAT_ID":"53916","MEAN_ELEMENT_THEORY":"SGP4","BSTAR":"0.00008439900000","TLE_LINE2":"2 53916  53.2186   5.6983 0003143  22.3232 336.2927 15.73183818  1308","DECAY_DATE":null},{"MEAN_MOTION":"15.73156746","SITE":"AFETR","OBJECT_ID":"2022-119AH","CLASSIFICATION_TYPE":"U","TIME_SYSTEM":"UTC","NORAD_CAT_ID":"53917","MEAN_ELEMENT_THEORY":"SGP4","BSTAR":"0.00043623000000","TLE_LINE2":"2 53917  53.2154   5.7872 0003755   7.9172 298.6288 15.73156746  1304","DECAY_DATE":null,"PERIOD":"91.536","MEAN_MOTION_DOT":"0.00060950","PERIAPSIS":"347.357","MEAN_MOTION_DDOT":"0.0000000000000","INCLINATION":"53.2154","ECCENTRICITY":"0.00037550","LAUNCH_DATE":"2022-09-24","SEMIMAJOR_AXIS":"6728.018","EPHEMERIS_TYPE":"0","ELEMENT_SET_NO":"999","APOAPSIS":"352.410","CENTER_NAME":"EARTH","ARG_OF_PERICENTER":"7.9172","RA_OF_ASC_NODE":"5.7872","GP_ID":"217695499","TLE_LINE1":"1 53917U 22119AH  22317.91667824  .00060950  00000-0  43623-3 0  9999","REV_AT_EPOCH":"130","MEAN_ANOMALY":"298.6288","OBJECT_TYPE":"PAYLOAD","RCS_SIZE":"LARGE","OBJECT_NAME":"STARLINK-5036","EPOCH":"2022-11-13T22:00:00.999936","COUNTRY_CODE":"US","FILE":"3653957","REF_FRAME":"TEME"},{"CLASSIFICATION_TYPE":"U","OBJECT_ID":"2022-119AJ","SITE":"AFETR","MEAN_MOTION":"15.73215089","DECAY_DATE":null,"TLE_LINE2":"2 53918  53.2170   5.7827 0003740   4.9801 303.9925 15.73215089  1307","BSTAR":"-0.00006314900000","MEAN_ELEMENT_THEORY":"SGP4","NORAD_CAT_ID":"53918","TIME_SYSTEM":"UTC","MEAN_MOTION_DDOT":"0.0000000000000","PERIAPSIS":"347.201","MEAN_MOTION_DOT":"-0.00009486","PERIOD":"91.532","EPHEMERIS_TYPE":"0","LAUNCH_DATE":"2022-09-24","SEMIMAJOR_AXIS":"6727.852","INCLINATION":"53.2170","ECCENTRICITY":"0.00037400","CENTER_NAME":"EARTH","APOAPSIS":"352.233","ELEMENT_SET_NO":"999","REV_AT_EPOCH":"130","TLE_LINE1":"1 53918U 22119AJ  22317.91667824 -.00009486  00000-0 -63149-4 0  9995","GP_ID":"217694745","RA_OF_ASC_NODE":"5.7827","ARG_OF_PERICENTER":"4.9801","EPOCH":"2022-11-13T22:00:00.999936","OBJECT_NAME":"STARLINK-5012","RCS_SIZE":"LARGE","MEAN_ANOMALY":"303.9925","OBJECT_TYPE":"PAYLOAD","REF_FRAME":"TEME","FILE":"3653957","COUNTRY_CODE":"US"},{"MEAN_MOTION_DOT":"0.00036005","PERIAPSIS":"346.956","MEAN_MOTION_DDOT":"0.0000000000000","PERIOD":"91.534","EPHEMERIS_TYPE":"0","INCLINATION":"53.2163","ECCENTRICITY":"0.00042460","SEMIMAJOR_AXIS":"6727.948","LAUNCH_DATE":"2022-09-24","CLASSIFICATION_TYPE":"U","MEAN_MOTION":"15.73181573","SITE":"AFETR","OBJECT_ID":"2022-119AK","DECAY_DATE":null,"TIME_SYSTEM":"UTC","NORAD_CAT_ID":"53919","MEAN_ELEMENT_THEORY":"SGP4","BSTAR":"0.00025997000000","TLE_LINE2":"2 53919  53.2163   5.7797 0004246   3.0071 306.4706 15.73181573  1302","OBJECT_NAME":"STARLINK-5023","EPOCH":"2022-11-13T22:00:00.999936","MEAN_ANOMALY":"306.4706","OBJECT_TYPE":"PAYLOAD","RCS_SIZE":"LARGE","COUNTRY_CODE":"US","FILE":"3653957","REF_FRAME":"TEME","APOAPSIS":"352.669","CENTER_NAME":"EARTH","ELEMENT_SET_NO":"999","GP_ID":"217694914","RA_OF_ASC_NODE":"5.7797","TLE_LINE1":"1 53919U 22119AK  22317.91667824  .00036005  00000-0  25997-3 0  9999","REV_AT_EPOCH":"130","ARG_OF_PERICENTER":"3.0071"},{"REV_AT_EPOCH":"130","GP_ID":"217695930","RA_OF_ASC_NODE":"5.7770","TLE_LINE1":"1 53920U 22119AL  22317.91667824  .00014921  00000-0  11049-3 0  9997","ARG_OF_PERICENTER":"6.4596","APOAPSIS":"352.457","CENTER_NAME":"EARTH","ELEMENT_SET_NO":"999","FILE":"3653957","REF_FRAME":"TEME","COUNTRY_CODE":"US","OBJECT_NAME":"STARLINK-5025","EPOCH":"2022-11-13T22:00:00.999936","MEAN_ANOMALY":"305.3576","OBJECT_TYPE":"PAYLOAD","RCS_SIZE":"LARGE","DECAY_DATE":null,"BSTAR":"0.00011049000000","TLE_LINE2":"2 53920  53.2163   5.7770 0004040   6.4596 305.3576 15.73207538  1309","NORAD_CAT_ID":"53920","TIME_SYSTEM":"UTC","MEAN_ELEMENT_THEORY":"SGP4","CLASSIFICATION_TYPE":"U","OBJECT_ID":"2022-119AL","MEAN_MOTION":"15.73207538","SITE":"AFETR","EPHEMERIS_TYPE":"0","LAUNCH_DATE":"2022-09-24","SEMIMAJOR_AXIS":"6727.874","ECCENTRICITY":"0.00040400","INCLINATION":"53.2163","PERIAPSIS":"347.021","MEAN_MOTION_DDOT":"0.0000000000000","MEAN_MOTION_DOT":"0.00014921","PERIOD":"91.533"}];
